start=new Date('2022-10-07T00:00:00.000Z').valueOf();
sats=[{"PERIOD":"95.592","OBJECT_NAME":"STARLINK-1892","PERIAPSIS":"546.020","MEAN_ANOMALY":"242.7676","ECCENTRICITY":"0.00017340","TLE_LINE1":"1 46743U 20074E   22279.42005445  .00006961  00000-0  48575-3 0  9997","SEMIMAJOR_AXIS":"6925.356","OBJECT_TYPE":"PAYLOAD","BSTAR":"0.00048575000000","EPOCH":"2022-10-06T10:04:52.704480","COUNTRY_CODE":"US","SITE":"AFETR","EPHEMERIS_TYPE":"0","GP_ID":"214311215","FILE":"3593749","CLASSIFICATION_TYPE":"U","NORAD_CAT_ID":"46743","TLE_LINE2":"2 46743  53.0546 174.2865 0001734 117.3490 242.7676 15.06397731108232","MEAN_MOTION_DDOT":"0.0000000000000","MEAN_ELEMENT_THEORY":"SGP4","INCLINATION":"53.0546","RA_OF_ASC_NODE":"174.2865","OBJECT_ID":"2020-074E","MEAN_MOTION_DOT":"0.00006961","REF_FRAME":"TEME","REV_AT_EPOCH":"10823","MEAN_MOTION":"15.06397731","RCS_SIZE":"LARGE","TIME_SYSTEM":"UTC","ELEMENT_SET_NO":"999","CENTER_NAME":"EARTH","APOAPSIS":"548.421","LAUNCH_DATE":"2020-10-24","ARG_OF_PERICENTER":"117.3490","DECAY_DATE":null},{"EPOCH":"2022-10-06T20:03:17.326944","SITE":"AFETR","COUNTRY_CODE":"US","EPHEMERIS_TYPE":"0","GP_ID":"214357773","FILE":"3594620","CLASSIFICATION_TYPE":"U","PERIOD":"95.592","MEAN_ANOMALY":"282.2892","PERIAPSIS":"546.370","ECCENTRICITY":"0.00011990","OBJECT_NAME":"STARLINK-1894","TLE_LINE1":"1 46744U 20074F   22279.83561721  .00008311  00000-0  57610-3 0  9998","OBJECT_TYPE":"PAYLOAD","BSTAR":"0.00057610000000","SEMIMAJOR_AXIS":"6925.336","CENTER_NAME":"EARTH","ELEMENT_SET_NO":"999","APOAPSIS":"548.031","LAUNCH_DATE":"2020-10-24","DECAY_DATE":null,"ARG_OF_PERICENTER":"77.8231","NORAD_CAT_ID":"46744","TLE_LINE2":"2 46744  53.0535 172.4349 0001199  77.8231 282.2892 15.06404204108295","INCLINATION":"53.0535","RA_OF_ASC_NODE":"172.4349","MEAN_MOTION_DDOT":"0.0000000000000","MEAN_ELEMENT_THEORY":"SGP4","OBJECT_ID":"2020-074F","REF_FRAME":"TEME","MEAN_MOTION_DOT":"0.00008311","REV_AT_EPOCH":"10829","TIME_SYSTEM":"UTC","RCS_SIZE":"LARGE","MEAN_MOTION":"15.06404204"},{"RCS_SIZE":"LARGE","TIME_SYSTEM":"UTC","MEAN_MOTION":"15.76646725","REV_AT_EPOCH":"10959","REF_FRAME":"TEME","MEAN_MOTION_DOT":"-0.00045733","OBJECT_ID":"2020-074G","RA_OF_ASC_NODE":"80.1495","INCLINATION":"53.0479","MEAN_MOTION_DDOT":"0.0000000000000","MEAN_ELEMENT_THEORY":"SGP4","TLE_LINE2":"2 46745  53.0479  80.1495 0001079  70.3162 289.7974 15.76646725109598","NORAD_CAT_ID":"46745","DECAY_DATE":null,"ARG_OF_PERICENTER":"70.3162","LAUNCH_DATE":"2020-10-24","APOAPSIS":"340.676","CENTER_NAME":"EARTH","ELEMENT_SET_NO":"999","OBJECT_TYPE":"PAYLOAD","BSTAR":"-0.00027790000000","SEMIMAJOR_AXIS":"6718.086","TLE_LINE1":"1 46745U 20074G   22279.82037181 -.00045733  00000-0 -27790-3 0  9993","MEAN_ANOMALY":"289.7974","PERIAPSIS":"339.226","ECCENTRICITY":"0.00010790","OBJECT_NAME":"STARLINK-1898","PERIOD":"91.333","CLASSIFICATION_TYPE":"U","FILE":"3594620","GP_ID":"214357797","EPHEMERIS_TYPE":"0","SITE":"AFETR","COUNTRY_CODE":"US","EPOCH":"2022-10-06T19:41:20.124384"},{"OBJECT_NAME":"STARLINK-1905","MEAN_ANOMALY":"294.7310","PERIAPSIS":"546.070","ECCENTRICITY":"0.00017030","SEMIMAJOR_AXIS":"6925.384","OBJECT_TYPE":"PAYLOAD","BSTAR":"-0.00009145400000","TLE_LINE1":"1 46746U 20074H   22279.12149077 -.00001643  00000-0 -91454-4 0  9996","PERIOD":"95.593","FILE":"3593749","CLASSIFICATION_TYPE":"U","COUNTRY_CODE":"US","SITE":"AFETR","EPOCH":"2022-10-06T02:54:56.802528","GP_ID":"214312230","EPHEMERIS_TYPE":"0","REV_AT_EPOCH":"10818","MEAN_MOTION_DOT":"-0.00001643","REF_FRAME":"TEME","MEAN_MOTION":"15.06388445","TIME_SYSTEM":"UTC","RCS_SIZE":"LARGE","MEAN_MOTION_DDOT":"0.0000000000000","MEAN_ELEMENT_THEORY":"SGP4","INCLINATION":"53.0537","RA_OF_ASC_NODE":"175.6424","NORAD_CAT_ID":"46746","TLE_LINE2":"2 46746  53.0537 175.6424 0001703  65.3857 294.7310 15.06388445108184","OBJECT_ID":"2020-074H","LAUNCH_DATE":"2020-10-24","ARG_OF_PERICENTER":"65.3857","DECAY_DATE":null,"APOAPSIS":"548.428","CENTER_NAME":"EARTH","ELEMENT_SET_NO":"999"},{"MEAN_ELEMENT_THEORY":"SGP4","MEAN_MOTION_DDOT":"0.0000000000000","RA_OF_ASC_NODE":"174.2399","INCLINATION":"53.0526","NORAD_CAT_ID":"46747","TLE_LINE2":"2 46747  53.0526 174.2399 0001276 106.1088 254.0042 15.06399391108255","OBJECT_ID":"2020-074J","REV_AT_EPOCH":"10825","MEAN_MOTION_DOT":"0.00016808","REF_FRAME":"TEME","MEAN_MOTION":"15.06399391","TIME_SYSTEM":"UTC","RCS_SIZE":"LARGE","APOAPSIS":"548.099","CENTER_NAME":"EARTH","ELEMENT_SET_NO":"999","LAUNCH_DATE":"2020-10-24","ARG_OF_PERICENTER":"106.1088","DECAY_DATE":null,"PERIOD":"95.592","OBJECT_NAME":"STARLINK-1908","MEAN_ANOMALY":"254.0042","PERIAPSIS":"546.332","ECCENTRICITY":"0.00012760","SEMIMAJOR_AXIS":"6925.350","BSTAR":"0.00114460000000","OBJECT_TYPE":"PAYLOAD","TLE_LINE1":"1 46747U 20074J   22279.43479567  .00016808  00000-0  11446-2 0  9999","COUNTRY_CODE":"US","SITE":"AFETR","EPOCH":"2022-10-06T10:26:06.345888","GP_ID":"214326374","EPHEMERIS_TYPE":"0","FILE":"3594190","CLASSIFICATION_TYPE":"U"},{"PERIOD":"95.593","MEAN_ANOMALY":"255.1638","PERIAPSIS":"546.461","ECCENTRICITY":"0.00011380","OBJECT_NAME":"STARLINK-1910","TLE_LINE1":"1 46748U 20074K   22279.70755396  .00001601  00000-0  12641-3 0  9991","BSTAR":"0.00012641000000","OBJECT_TYPE":"PAYLOAD","SEMIMAJOR_AXIS":"6925.384","EPOCH":"2022-10-06T16:58:52.662144","SITE":"AFETR","COUNTRY_CODE":"US","EPHEMERIS_TYPE":"0","GP_ID":"214357274","FILE":"3594620","CLASSIFICATION_TYPE":"U","NORAD_CAT_ID":"46748","TLE_LINE2":"2 46748  53.0539 173.0051 0001138 104.9477 255.1638 15.06388357108272","INCLINATION":"53.0539","RA_OF_ASC_NODE":"173.0051","MEAN_MOTION_DDOT":"0.0000000000000","MEAN_ELEMENT_THEORY":"SGP4","OBJECT_ID":"2020-074K","REF_FRAME":"TEME","MEAN_MOTION_DOT":"0.00001601","REV_AT_EPOCH":"10827","TIME_SYSTEM":"UTC","RCS_SIZE":"LARGE","MEAN_MOTION":"15.06388357","CENTER_NAME":"EARTH","ELEMENT_SET_NO":"999","APOAPSIS":"548.037","LAUNCH_DATE":"2020-10-24","DECAY_DATE":null,"ARG_OF_PERICENTER":"104.9477"},{"EPOCH":"2022-10-06T10:47:20.282784","SITE":"AFETR","COUNTRY_CODE":"US","EPHEMERIS_TYPE":"0","GP_ID":"214326094","FILE":"3594180","CLASSIFICATION_TYPE":"U","PERIOD":"95.593","PERIAPSIS":"546.254","MEAN_ANOMALY":"274.5689","ECCENTRICITY":"0.00014190","OBJECT_NAME":"STARLINK-1911","TLE_LINE1":"1 46749U 20074L   22279.44954031  .00002059  00000-0  15711-3 0  9999","OBJECT_TYPE":"PAYLOAD","BSTAR":"0.00015711000000","SEMIMAJOR_AXIS":"6925.372","ELEMENT_SET_NO":"999","CENTER_NAME":"EARTH","APOAPSIS":"548.220","LAUNCH_DATE":"2020-10-24","DECAY_DATE":null,"ARG_OF_PERICENTER":"85.5462","NORAD_CAT_ID":"46749","TLE_LINE2":"2 46749  53.0542 174.1741 0001419  85.5462 274.5689 15.06392406108254","INCLINATION":"53.0542","RA_OF_ASC_NODE":"174.1741","MEAN_ELEMENT_THEORY":"SGP4","MEAN_MOTION_DDOT":"0.0000000000000","OBJECT_ID":"2020-074L","REF_FRAME":"TEME","MEAN_MOTION_DOT":"0.00002059","REV_AT_EPOCH":"10825","TIME_SYSTEM":"UTC","RCS_SIZE":"LARGE","MEAN_MOTION":"15.06392406"},{"OBJECT_ID":"2020-074N","TLE_LINE2":"2 46751  53.0549 174.1931 0001486 116.7121 243.4021 15.06394326108245","NORAD_CAT_ID":"46751","MEAN_MOTION_DDOT":"0.0000000000000","MEAN_ELEMENT_THEORY":"SGP4","INCLINATION":"53.0549","RA_OF_ASC_NODE":"174.1931","MEAN_MOTION":"15.06394326","RCS_SIZE":"LARGE","TIME_SYSTEM":"UTC","MEAN_MOTION_DOT":"0.00001759","REF_FRAME":"TEME","REV_AT_EPOCH":"10824","ELEMENT_SET_NO":"999","CENTER_NAME":"EARTH","APOAPSIS":"548.260","ARG_OF_PERICENTER":"116.7121","DECAY_DATE":null,"LAUNCH_DATE":"2020-10-24","PERIOD":"95.593","TLE_LINE1":"1 46751U 20074N   22279.44585133  .00001759  00000-0  13698-3 0  9993","SEMIMAJOR_AXIS":"6925.366","BSTAR":"0.00013698000000","OBJECT_TYPE":"PAYLOAD","OBJECT_NAME":"STARLINK-1920","PERIAPSIS":"546.202","MEAN_ANOMALY":"243.4021","ECCENTRICITY":"0.00014860","EPHEMERIS_TYPE":"0","GP_ID":"214327378","EPOCH":"2022-10-06T10:42:01.554912","COUNTRY_CODE":"US","SITE":"AFETR","CLASSIFICATION_TYPE":"U","FILE":"3594228"},{"NORAD_CAT_ID":"46752","TLE_LINE2":"2 46752  53.0548 175.6235 0001215  87.3265 272.7863 15.06416899108182","INCLINATION":"53.0548","RA_OF_ASC_NODE":"175.6235","MEAN_MOTION_DDOT":"0.0000000000000","MEAN_ELEMENT_THEORY":"SGP4","OBJECT_ID":"2020-074P","REF_FRAME":"TEME","MEAN_MOTION_DOT":"0.00027288","REV_AT_EPOCH":"10818","RCS_SIZE":"LARGE","TIME_SYSTEM":"UTC","MEAN_MOTION":"15.06416899","ELEMENT_SET_NO":"999","CENTER_NAME":"EARTH","APOAPSIS":"548.003","LAUNCH_DATE":"2020-10-24","DECAY_DATE":null,"ARG_OF_PERICENTER":"87.3265","PERIOD":"95.591","MEAN_ANOMALY":"272.7863","PERIAPSIS":"546.320","ECCENTRICITY":"0.00012150","OBJECT_NAME":"STARLINK-1921","TLE_LINE1":"1 46752U 20074P   22279.12519009  .00027288  00000-0  18429-2 0  9999","BSTAR":"0.00184290000000","OBJECT_TYPE":"PAYLOAD","SEMIMAJOR_AXIS":"6925.297","EPOCH":"2022-10-06T03:00:16.423776","SITE":"AFETR","COUNTRY_CODE":"US","EPHEMERIS_TYPE":"0","GP_ID":"214311216","FILE":"3593749","CLASSIFICATION_TYPE":"U"},{"PERIOD":"95.593","TLE_LINE1":"1 46753U 20074Q   22279.09200375 -.00001553  00000-0 -85430-4 0  9996","OBJECT_TYPE":"PAYLOAD","BSTAR":"-0.00008543000000","SEMIMAJOR_AXIS":"6925.385","PERIAPSIS":"546.269","MEAN_ANOMALY":"281.8540","ECCENTRICITY":"0.00014170","OBJECT_NAME":"STARLINK-1922","EPHEMERIS_TYPE":"0","GP_ID":"214311229","EPOCH":"2022-10-06T02:12:29.124000","SITE":"AFETR","COUNTRY_CODE":"US","CLASSIFICATION_TYPE":"U","FILE":"3593749","OBJECT_ID":"2020-074Q","TLE_LINE2":"2 46753  53.0555 175.7755 0001417  78.2608 281.8540 15.06388164108189","NORAD_CAT_ID":"46753","RA_OF_ASC_NODE":"175.7755","INCLINATION":"53.0555","MEAN_ELEMENT_THEORY":"SGP4","MEAN_MOTION_DDOT":"0.0000000000000","TIME_SYSTEM":"UTC","RCS_SIZE":"LARGE","MEAN_MOTION":"15.06388164","REF_FRAME":"TEME","MEAN_MOTION_DOT":"-0.00001553","REV_AT_EPOCH":"10818","CENTER_NAME":"EARTH","ELEMENT_SET_NO":"999","APOAPSIS":"548.231","DECAY_DATE":null,"ARG_OF_PERICENTER":"78.2608","LAUNCH_DATE":"2020-10-24"}];
